<?xml version="1.0" encoding="UTF-8"?>
<kml xmlns="http://www.opengis.net/kml/2.2">
  <Document>
    <name>Paga in Crypto e Vinci Oro Digitale — negozi aderenti</name>
    <Placemark>
      <name>11teamsports Lugano</name>
      <description><![CDATA[Maghetti 10, 6900 Lugano<br>Shopping<br>Accetta: BTC, USDT]]></description>
      <Point><coordinates>8.953802,46.005314,0</coordinates></Point>
    </Placemark>
    <Placemark>
      <name>12zero4 Caffè, Ristorant e Winebar</name>
      <description><![CDATA[Via Cattedrale 16, 6900 Lugano<br>Ristoranti e bar<br>Accetta: BTC, USDT]]></description>
      <Point><coordinates>8.94869,46.005274,0</coordinates></Point>
    </Placemark>
    <Placemark>
      <name>1979 Tattoo Shop</name>
      <description><![CDATA[Via Zurigo 8, 6900 Lugano<br>Servizi<br>Accetta: BTC, USDT]]></description>
      <Point><coordinates>8.953978,46.011922,0</coordinates></Point>
    </Placemark>
    <Placemark>
      <name>3P Food</name>
      <description><![CDATA[Via Al Nido 1, 6900 Lugano<br>Ristoranti e bar<br>Accetta: BTC, USDT]]></description>
      <Point><coordinates>8.942078,46.006893,0</coordinates></Point>
    </Placemark>
    <Placemark>
      <name>Agricola Chiera</name>
      <description><![CDATA[Via Balestra 4, 6900 Lugano<br>Ristoranti e bar<br>Accetta: BTC, USDT]]></description>
      <Point><coordinates>8.953563,46.007785,0</coordinates></Point>
    </Placemark>
    <Placemark>
      <name>Agua</name>
      <description><![CDATA[Piazza Riforma 1, 6900 Lugano<br>Ristoranti e bar<br>Accetta: BTC, USDT]]></description>
      <Point><coordinates>8.951313,46.003179,0</coordinates></Point>
    </Placemark>
    <Placemark>
      <name>AIL Arena Experience Center</name>
      <description><![CDATA[Piazza Cioccaro 3, 6900 Lugano<br>Servizi<br>Accetta: BTC, USDT]]></description>
      <Point><coordinates>8.950006,46.004394,0</coordinates></Point>
    </Placemark>
    <Placemark>
      <name>Aline Battistella - Parrucchiera</name>
      <description><![CDATA[c/o MDP. Michele Di Paolo AESTHETIC HUB, Via Pioda 9, 6900 Lugano<br>Servizi<br>Accetta: BTC, USDT]]></description>
      <Point><coordinates>8.953904,46.007285,0</coordinates></Point>
    </Placemark>
    <Placemark>
      <name>Alla Fermata</name>
      <description><![CDATA[Via Ludovico Ariosto 3, 6900 Lugano<br>Shopping<br>Accetta: BTC, USDT]]></description>
      <Point><coordinates>8.951053,46.005763,0</coordinates></Point>
    </Placemark>
    <Placemark>
      <name>Alpine Smiles</name>
      <description><![CDATA[Via Pico 19, 6900 Lugano<br>Servizi<br>Accetta: BTC, USDT]]></description>
      <Point><coordinates>8.969404,46.008765,0</coordinates></Point>
    </Placemark>
    <Placemark>
      <name>ALTEA Atelier</name>
      <description><![CDATA[Via Olgiati 8, 6900 Lugano<br>Shopping<br>Accetta: BTC, USDT]]></description>
      <Point><coordinates>8.952816,46.011869,0</coordinates></Point>
    </Placemark>
    <Placemark>
      <name>AM Hub Interiors</name>
      <description><![CDATA[Via Pian Scairolo 23, 6912 Pazzallo<br>Shopping<br>Accetta: BTC, USDT]]></description>
      <Point><coordinates>8.930734,45.983114,0</coordinates></Point>
    </Placemark>
    <Placemark>
      <name>Amabike</name>
      <description><![CDATA[Piazza Cinque Vie 2, 6932 Breganzona<br>Shopping<br>Accetta: BTC, USDT]]></description>
      <Point><coordinates>8.936017,46.011345,0</coordinates></Point>
    </Placemark>
    <Placemark>
      <name>Amazing Games</name>
      <description><![CDATA[Via madonnetta 15, 6900 Lugano<br>Shopping<br>Accetta: BTC, USDT]]></description>
      <Point><coordinates>8.957191,46.011827,0</coordinates></Point>
    </Placemark>
    <Placemark>
      <name>Antica Osteria del Porto</name>
      <description><![CDATA[Via Foce 9, 6900 Lugano<br>Ristoranti e bar<br>Accetta: BTC, USDT]]></description>
      <Point><coordinates>8.961711,46.003394,0</coordinates></Point>
    </Placemark>
    <Placemark>
      <name>Antonioli Boutique Donna</name>
      <description><![CDATA[Via Nassa 29, 6900 Lugano<br>Shopping<br>Accetta: BTC, USDT]]></description>
      <Point><coordinates>8.949533,46.000577,0</coordinates></Point>
    </Placemark>
    <Placemark>
      <name>Argentino Bistrot &amp; Pizza</name>
      <description><![CDATA[Crocicchio Cortogna 1, 6900 Lugano<br>Ristoranti e bar<br>Accetta: BTC, USDT]]></description>
      <Point><coordinates>8.95157,46.004101,0</coordinates></Point>
    </Placemark>
    <Placemark>
      <name>Artestetica</name>
      <description><![CDATA[Via Zurigo 11, 6900 Lugano<br>Servizi<br>Accetta: BTC, USDT]]></description>
      <Point><coordinates>8.954051,46.011827,0</coordinates></Point>
    </Placemark>
    <Placemark>
      <name>Ashri Boutique</name>
      <description><![CDATA[Quartiere Maghetti 20, 6900 Lugano<br>Shopping<br>Accetta: BTC, USDT]]></description>
      <Point><coordinates>8.954032,46.005239,0</coordinates></Point>
    </Placemark>
    <Placemark>
      <name>Auberge</name>
      <description><![CDATA[Corso Enrico Pestalozzi 21, 6900 Lugano<br>Servizi<br>Accetta: BTC, USDT]]></description>
      <Point><coordinates>8.953906,46.005917,0</coordinates></Point>
    </Placemark>
    <Placemark>
      <name>Autentiko Gusto Napoletano</name>
      <description><![CDATA[Riva Albertolli 5, 6900 Lugano<br>Ristoranti e bar<br>Accetta: BTC, USDT]]></description>
      <Point><coordinates>8.954824,46.003816,0</coordinates></Point>
    </Placemark>
    <Placemark>
      <name>AV Informatica</name>
      <description><![CDATA[Via Ceresio 30, 6963 Pregassona<br>Shopping<br>Accetta: BTC, USDT]]></description>
      <Point><coordinates>8.965037,46.019387,0</coordinates></Point>
    </Placemark>
    <Placemark>
      <name>Bancarella abbigliamento donna Pellegrini</name>
      <description><![CDATA[Piazza Alessandro Manzoni, 6900 Lugano<br>Shopping<br>Accetta: BTC, USDT]]></description>
      <Point><coordinates>8.951998,46.004117,0</coordinates></Point>
    </Placemark>
    <Placemark>
      <name>Bar Civico 40</name>
      <description><![CDATA[Viale Franscini 40, 6900 Lugano<br>Ristoranti e bar<br>Accetta: BTC, USDT]]></description>
      <Point><coordinates>8.954826,46.011412,0</coordinates></Point>
    </Placemark>
    <Placemark>
      <name>Bar Corallo</name>
      <description><![CDATA[Via Mons. Angelo Jelmini 4, 6900 Lugano<br>Ristoranti e bar<br>Accetta: BTC, USDT]]></description>
      <Point><coordinates>8.941904,46.006734,0</coordinates></Point>
    </Placemark>
    <Placemark>
      <name>Bar Kream</name>
      <description><![CDATA[Piazza Manzoni 2B, 6900 Lugano<br>Ristoranti e bar<br>Accetta: BTC, USDT]]></description>
      <Point><coordinates>8.952244,46.003921,0</coordinates></Point>
    </Placemark>
    <Placemark>
      <name>Bar Lando</name>
      <description><![CDATA[Via Simen 6, 6900 Lugano<br>Ristoranti e bar<br>Accetta: BTC, USDT]]></description>
      <Point><coordinates>8.956802,46.012303,0</coordinates></Point>
    </Placemark>
    <Placemark>
      <name>Bar Pinard</name>
      <description><![CDATA[Piazza Molino Nuovo 5, 6900 Lugano<br>Ristoranti e bar<br>Accetta: BTC, USDT]]></description>
      <Point><coordinates>8.954725,46.01205,0</coordinates></Point>
    </Placemark>
    <Placemark>
      <name>Bar Ristorante Gabbani</name>
      <description><![CDATA[Piazza Cioccaro 1, 6900 Lugano<br>Ristoranti e bar<br>Accetta: BTC, USDT]]></description>
      <Point><coordinates>8.950176,46.004295,0</coordinates></Point>
    </Placemark>
    <Placemark>
      <name>Bar Sempione</name>
      <description><![CDATA[Via Peri 5, 6900 Lugano<br>Ristoranti e bar<br>Accetta: BTC, USDT]]></description>
      <Point><coordinates>8.950617,46.005336,0</coordinates></Point>
    </Placemark>
    <Placemark>
      <name>Bar The Climb</name>
      <description><![CDATA[Via Maggio 23, 6900 Lugano<br>Ristoranti e bar<br>Accetta: BTC, USDT]]></description>
      <Point><coordinates>8.963723,46.008924,0</coordinates></Point>
    </Placemark>
    <Placemark>
      <name>Barber Shop Wellington Fade</name>
      <description><![CDATA[Via alle Caragne 1, 6900 Lugano<br>Servizi<br>Accetta: BTC, USDT]]></description>
      <Point><coordinates>8.955538,46.015328,0</coordinates></Point>
    </Placemark>
    <Placemark>
      <name>Barbiere Latino</name>
      <description><![CDATA[Via Antonio Ciseri 2, 6900 Lugano<br>Servizi<br>Accetta: BTC, USDT]]></description>
      <Point><coordinates>8.95314,46.010269,0</coordinates></Point>
    </Placemark>
    <Placemark>
      <name>Be Different</name>
      <description><![CDATA[Via Beltramina 8, 6900 Lugano<br>Servizi<br>Accetta: BTC, USDT]]></description>
      <Point><coordinates>8.957275,46.017115,0</coordinates></Point>
    </Placemark>
    <Placemark>
      <name>BEAUTY CORNER by Elba Sechi</name>
      <description><![CDATA[Via al Fiume 1, 6962 Viganello<br>Servizi<br>Accetta: BTC, USDT]]></description>
      <Point><coordinates>8.962304,46.014983,0</coordinates></Point>
    </Placemark>
    <Placemark>
      <name>Beauty Room</name>
      <description><![CDATA[Via Adamini 32, 6900 Lugano<br>Servizi<br>Accetta: BTC, USDT]]></description>
      <Point><coordinates>8.943181,45.997132,0</coordinates></Point>
    </Placemark>
    <Placemark>
      <name>BEC Vintage &amp; Sartoria</name>
      <description><![CDATA[Via Guglielmo Marconi 2, 6900 Lugano<br>Shopping<br>Accetta: BTC, USDT]]></description>
      <Point><coordinates>8.954295,46.004001,0</coordinates></Point>
    </Placemark>
    <Placemark>
      <name>Benessere Musaj</name>
      <description><![CDATA[Via Pietro Capelli 10, 6900 Lugano<br>Servizi<br>Accetta: BTC, USDT]]></description>
      <Point><coordinates>8.961032,46.007421,0</coordinates></Point>
    </Placemark>
    <Placemark>
      <name>Bijoux Io</name>
      <description><![CDATA[Via Pretorio 7, 6900 Lugano<br>Shopping<br>Accetta: BTC, USDT]]></description>
      <Point><coordinates>8.951507,46.005671,0</coordinates></Point>
    </Placemark>
    <Placemark>
      <name>Boatcenter Lugano</name>
      <description><![CDATA[Piazza Bernardino Luini 2, 6900 Lugano<br>Servizi<br>Accetta: BTC, USDT]]></description>
      <Point><coordinates>8.949828,45.999871,0</coordinates></Point>
    </Placemark>
    <Placemark>
      <name>Body Work Lugano - EMS e Vacu Gym</name>
      <description><![CDATA[Via Tesserete 65, 6900 Lugano<br>Servizi<br>Accetta: BTC, USDT]]></description>
      <Point><coordinates>8.950644,46.01682,0</coordinates></Point>
    </Placemark>
    <Placemark>
      <name>Boite D'Or Gioielli</name>
      <description><![CDATA[Via Nassa 54, 6900 Lugano<br>Shopping<br>Accetta: BTC, USDT]]></description>
      <Point><coordinates>8.949369,46.001619,0</coordinates></Point>
    </Placemark>
    <Placemark>
      <name>Boutique Bolle di Sapone</name>
      <description><![CDATA[Via La Santa 11, 6962 Viganello<br>Shopping<br>Accetta: BTC, USDT]]></description>
      <Point><coordinates>8.962847,46.011604,0</coordinates></Point>
    </Placemark>
    <Placemark>
      <name>Boutique Naaf</name>
      <description><![CDATA[Via Cattedrale 8, 6900 Lugano<br>Shopping<br>Accetta: BTC, USDT]]></description>
      <Point><coordinates>8.949258,46.00505,0</coordinates></Point>
    </Placemark>
    <Placemark>
      <name>Boutique per la schiena</name>
      <description><![CDATA[Viale Cattaneo 19, 6900 Lugano<br>Shopping<br>Accetta: BTC, USDT]]></description>
      <Point><coordinates>8.959286,46.005902,0</coordinates></Point>
    </Placemark>
    <Placemark>
      <name>Boutique S2 2nd Hand Shop</name>
      <description><![CDATA[Via Cattedrale 8, 6900 Lugano<br>Shopping<br>Accetta: BTC, USDT]]></description>
      <Point><coordinates>8.949269,46.005054,0</coordinates></Point>
    </Placemark>
    <Placemark>
      <name>Boutique Scrupoli</name>
      <description><![CDATA[Via Cattedrale 6, 6900 Lugano<br>Shopping<br>Accetta: BTC, USDT]]></description>
      <Point><coordinates>8.949391,46.004913,0</coordinates></Point>
    </Placemark>
    <Placemark>
      <name>Boutique Sesto Senso</name>
      <description><![CDATA[Via Serafino Balestra 4, 6900 Lugano<br>Shopping<br>Accetta: BTC, USDT]]></description>
      <Point><coordinates>8.952576,46.007312,0</coordinates></Point>
    </Placemark>
    <Placemark>
      <name>Boutique Steps</name>
      <description><![CDATA[Via Cattedrale 8, 6900 Lugano<br>Shopping<br>Accetta: BTC, USDT]]></description>
      <Point><coordinates>8.949328,46.005331,0</coordinates></Point>
    </Placemark>
    <Placemark>
      <name>Caffè In</name>
      <description><![CDATA[Via Balestra 7, 6900 Lugano<br>Ristoranti e bar<br>Accetta: BTC, USDT]]></description>
      <Point><coordinates>8.954181,46.008733,0</coordinates></Point>
    </Placemark>
    <Placemark>
      <name>Caffè Milano</name>
      <description><![CDATA[Piazza Cioccaro 7, 6900 Lugano<br>Ristoranti e bar<br>Accetta: BTC, USDT]]></description>
      <Point><coordinates>8.949185,46.004567,0</coordinates></Point>
    </Placemark>
    <Placemark>
      <name>Caffè Roma</name>
      <description><![CDATA[Quartiere Maghetti 10, 6900 Lugano<br>Ristoranti e bar<br>Accetta: BTC, USDT]]></description>
      <Point><coordinates>8.953529,46.005305,0</coordinates></Point>
    </Placemark>
    <Placemark>
      <name>Casinò Lugano (Ristorante Elementi + bar ai piani)</name>
      <description><![CDATA[Via Stauffacher 1, 6900 Lugano<br>Ristoranti e bar<br>Accetta: BTC, USDT]]></description>
      <Point><coordinates>8.955121,46.004149,0</coordinates></Point>
    </Placemark>
    <Placemark>
      <name>CCT Formazione Linguistica e Culturale</name>
      <description><![CDATA[Viale Cattaneo 27, 6900 Lugano<br>Servizi<br>Accetta: BTC, USDT]]></description>
      <Point><coordinates>8.960395,46.00602,0</coordinates></Point>
    </Placemark>
    <Placemark>
      <name>Centrostampa Express di Stefano Marinuzzi</name>
      <description><![CDATA[Via Vignola 2, 6900 Lugano<br>Servizi<br>Accetta: BTC, USDT]]></description>
      <Point><coordinates>8.956287,46.016401,0</coordinates></Point>
    </Placemark>
    <Placemark>
      <name>CeresaOTTICA</name>
      <description><![CDATA[Via Maghetti 10, 6900 Lugano<br>Shopping<br>Accetta: BTC, USDT]]></description>
      <Point><coordinates>8.953802,46.005314,0</coordinates></Point>
    </Placemark>
    <Placemark>
      <name>Ceresio Gold</name>
      <description><![CDATA[Via Carlo Maderno 24, 6900 Lugano<br>Shopping<br>Accetta: BTC, USDT]]></description>
      <Point><coordinates>8.955635,46.010916,0</coordinates></Point>
    </Placemark>
    <Placemark>
      <name>Ceresio Jewelry</name>
      <description><![CDATA[Galleria Rezzonico - Via Pessina 9, 6900 Lugano<br>Shopping<br>Accetta: BTC, USDT]]></description>
      <Point><coordinates>8.950179,46.004093,0</coordinates></Point>
    </Placemark>
    <Placemark>
      <name>Chili Adv</name>
      <description><![CDATA[Via Trevano 2, 6900 Lugano<br>Servizi<br>Accetta: BTC, USDT]]></description>
      <Point><coordinates>8.954993,46.012789,0</coordinates></Point>
    </Placemark>
    <Placemark>
      <name>Christmas Gift Village</name>
      <description><![CDATA[Viale Castagnola 31 (Grand Hotel Villa Castagnola), 6900 Lugano<br>Servizi<br>Accetta: BTC, USDT]]></description>
      <Point><coordinates>8.969631,46.006991,0</coordinates></Point>
    </Placemark>
    <Placemark>
      <name>Cigar Must</name>
      <description><![CDATA[Piazza Riforma 1, 6900 Lugano<br>Ristoranti e bar<br>Accetta: BTC, USDT]]></description>
      <Point><coordinates>8.951054,46.003554,0</coordinates></Point>
    </Placemark>
    <Placemark>
      <name>Cigar Must La Casa del Habano</name>
      <description><![CDATA[Via Giuseppe Motta 12, 6900 Lugano<br>Ristoranti e bar<br>Accetta: BTC, USDT]]></description>
      <Point><coordinates>8.949555,46.003931,0</coordinates></Point>
    </Placemark>
    <Placemark>
      <name>Cinema Iride</name>
      <description><![CDATA[Piazza S. Rocco 3, 6900 Lugano<br>Servizi<br>Accetta: BTC, USDT]]></description>
      <Point><coordinates>8.953721,46.004894,0</coordinates></Point>
    </Placemark>
    <Placemark>
      <name>Cinema LUX</name>
      <description><![CDATA[Via Giuseppe Motta 67, 6900 Massagno<br>Servizi<br>Accetta: BTC, USDT]]></description>
      <Point><coordinates>8.94383,46.012517,0</coordinates></Point>
    </Placemark>
    <Placemark>
      <name>Circular Lugano | Noleggio di oggetti comuni</name>
      <description><![CDATA[Via S. Gottardo 77, 6900 Massagno<br>Shopping<br>Accetta: BTC, USDT]]></description>
      <Point><coordinates>8.946464,46.012444,0</coordinates></Point>
    </Placemark>
    <Placemark>
      <name>Class Cafè</name>
      <description><![CDATA[Corso Pestalozzi 3, 6900 Lugano<br>Ristoranti e bar<br>Accetta: BTC, USDT]]></description>
      <Point><coordinates>8.951265,46.006365,0</coordinates></Point>
    </Placemark>
    <Placemark>
      <name>Clinica del sale</name>
      <description><![CDATA[Via Trevano 73, 6900 Lugano<br>Servizi<br>Accetta: BTC, USDT]]></description>
      <Point><coordinates>8.957121,46.019142,0</coordinates></Point>
    </Placemark>
    <Placemark>
      <name>Club G.</name>
      <description><![CDATA[Piazza Cioccaro 1, 6900 Lugano<br>Ristoranti e bar<br>Accetta: BTC, USDT]]></description>
      <Point><coordinates>8.950176,46.004295,0</coordinates></Point>
    </Placemark>
    <Placemark>
      <name>Club.G</name>
      <description><![CDATA[Piazza Cioccaro 1, 6900 Lugano<br>Ristoranti e bar<br>Accetta: BTC, USDT]]></description>
      <Point><coordinates>8.950451,46.004205,0</coordinates></Point>
    </Placemark>
    <Placemark>
      <name>Color X</name>
      <description><![CDATA[Via Arbostra 2, 6963 Pregassona<br>Servizi<br>Accetta: BTC, USDT]]></description>
      <Point><coordinates>8.968939,46.023282,0</coordinates></Point>
    </Placemark>
    <Placemark>
      <name>Coltelleria Maturi</name>
      <description><![CDATA[Via Ariosto 1, 6900 Lugano<br>Shopping<br>Accetta: BTC, USDT]]></description>
      <Point><coordinates>8.951328,46.005812,0</coordinates></Point>
    </Placemark>
    <Placemark>
      <name>Conservatorio della Svizzera italiana</name>
      <description><![CDATA[Via Soldino 9, 6900 Lugano<br>Servizi<br>Accetta: BTC, USDT]]></description>
      <Point><coordinates>8.939922,46.006256,0</coordinates></Point>
    </Placemark>
    <Placemark>
      <name>Convivio Lugano - bacco e luppolo</name>
      <description><![CDATA[Via della Posta 2, 6900 Lugano<br>Ristoranti e bar<br>Accetta: BTC, USDT]]></description>
      <Point><coordinates>8.953078,46.004495,0</coordinates></Point>
    </Placemark>
    <Placemark>
      <name>Cyberconnect</name>
      <description><![CDATA[Via Besso 59, 6900 Lugano<br>Servizi<br>Accetta: BTC, USDT]]></description>
      <Point><coordinates>8.937398,46.010161,0</coordinates></Point>
    </Placemark>
    <Placemark>
      <name>D'Amico Alimentari frutta e verdura</name>
      <description><![CDATA[Via Pretorio 19, 6900 Lugano<br>Ristoranti e bar<br>Accetta: BTC, USDT]]></description>
      <Point><coordinates>8.952222,46.00767,0</coordinates></Point>
    </Placemark>
    <Placemark>
      <name>D4B - Digital for Business</name>
      <description><![CDATA[Via Polar 24, 6932 Breganzona<br>Servizi<br>Accetta: BTC, USDT]]></description>
      <Point><coordinates>8.932859,46.009909,0</coordinates></Point>
    </Placemark>
    <Placemark>
      <name>Da Lia Coiffure</name>
      <description><![CDATA[Via Maraini 18, 6900 Lugano<br>Servizi<br>Accetta: BTC, USDT]]></description>
      <Point><coordinates>8.943329,45.998193,0</coordinates></Point>
    </Placemark>
    <Placemark>
      <name>Da Lino Prosciutteria</name>
      <description><![CDATA[Piazza Riforma 12, 6900 Lugano<br>Ristoranti e bar<br>Accetta: BTC, USDT]]></description>
      <Point><coordinates>8.9517,46.003916,0</coordinates></Point>
    </Placemark>
    <Placemark>
      <name>Dance In your Essence di Romina Henle</name>
      <description><![CDATA[Via Crivelli Torricelli 15, 6900 Lugano<br>Servizi<br>Accetta: BTC, USDT]]></description>
      <Point><coordinates>8.940715,46.003457,0</coordinates></Point>
    </Placemark>
    <Placemark>
      <name>David Glamour</name>
      <description><![CDATA[Piazza Cioccaro 10, 6900 Lugano<br>Shopping<br>Accetta: BTC, USDT]]></description>
      <Point><coordinates>8.949757,46.005028,0</coordinates></Point>
    </Placemark>
    <Placemark>
      <name>DESK FOOD</name>
      <description><![CDATA[Viale Franscini 27, 6900 Lugano<br>Ristoranti e bar<br>Accetta: BTC, USDT]]></description>
      <Point><coordinates>8.954405,46.011151,0</coordinates></Point>
    </Placemark>
    <Placemark>
      <name>Dhalia Beauty Center Lugano</name>
      <description><![CDATA[Via Lucchini 6, 6900 Lugano<br>Servizi<br>Accetta: BTC, USDT]]></description>
      <Point><coordinates>8.957457,46.006467,0</coordinates></Point>
    </Placemark>
    <Placemark>
      <name>Didi's Food Truck (only during food truck events)</name>
      <description><![CDATA[Via Nassa, 6900 Lugano<br>Ristoranti e bar<br>Accetta: BTC, USDT]]></description>
      <Point><coordinates>8.949994,46.003074,0</coordinates></Point>
    </Placemark>
    <Placemark>
      <name>Dieci Style Factory</name>
      <description><![CDATA[Via Cattedrale 8, 6900 Lugano<br>Shopping<br>Accetta: BTC, USDT]]></description>
      <Point><coordinates>8.949322,46.00491,0</coordinates></Point>
    </Placemark>
    <Placemark>
      <name>Dilo’s Lugano</name>
      <description><![CDATA[Via Serafino Balestra 31, 6900 Lugano<br>Ristoranti e bar<br>Accetta: BTC, USDT]]></description>
      <Point><coordinates>8.959012,46.007889,0</coordinates></Point>
    </Placemark>
    <Placemark>
      <name>Doctor Phone</name>
      <description><![CDATA[Corso Elvezia 13, 6900 Lugano<br>Shopping<br>Accetta: BTC, USDT]]></description>
      <Point><coordinates>8.955519,46.007306,0</coordinates></Point>
    </Placemark>
    <Placemark>
      <name>Dolce Vita Shop</name>
      <description><![CDATA[Via Valletta 3, 6900 Lugano<br>Ristoranti e bar<br>Accetta: BTC, USDT]]></description>
      <Point><coordinates>8.942797,45.994538,0</coordinates></Point>
    </Placemark>
    <Placemark>
      <name>Donde Art Gallery</name>
      <description><![CDATA[Via Nassa 68, 6900 Lugano<br>Shopping<br>Accetta: BTC, USDT]]></description>
      <Point><coordinates>8.94904,46.000277,0</coordinates></Point>
    </Placemark>
    <Placemark>
      <name>Dr.med. Luca Ballestra - chirurgia e medicina estetica</name>
      <description><![CDATA[Via al Forte 4, 6900 Lugano<br>Servizi<br>Accetta: BTC, USDT]]></description>
      <Point><coordinates>8.953235,46.005477,0</coordinates></Point>
    </Placemark>
    <Placemark>
      <name>E-6900 SAGL</name>
      <description><![CDATA[Via Trevano 7, 6900 Lugano<br>Servizi<br>Accetta: BTC, USDT]]></description>
      <Point><coordinates>8.954798,46.013363,0</coordinates></Point>
    </Placemark>
    <Placemark>
      <name>E-outlet E-6900</name>
      <description><![CDATA[Via Trevano 1, 6900 Lugano<br>Ristoranti e bar<br>Accetta: BTC, USDT]]></description>
      <Point><coordinates>8.954754,46.013035,0</coordinates></Point>
    </Placemark>
    <Placemark>
      <name>Edicola Molino Nuovo</name>
      <description><![CDATA[Via Zurigo 1, 6900 Lugano<br>Ristoranti e bar<br>Accetta: BTC, USDT]]></description>
      <Point><coordinates>8.956384,46.011277,0</coordinates></Point>
    </Placemark>
    <Placemark>
      <name>Edimen SA - Prodotti editoriali ed eventi</name>
      <description><![CDATA[Via Massagno 20, 6900 Lugano<br>Servizi<br>Accetta: BTC, USDT]]></description>
      <Point><coordinates>8.947193,46.009777,0</coordinates></Point>
    </Placemark>
    <Placemark>
      <name>Effe.c Hair Studio &amp; Barberia</name>
      <description><![CDATA[Via Ceresio 9, 6963 Pregassona<br>Servizi<br>Accetta: BTC, USDT]]></description>
      <Point><coordinates>8.964349,46.016748,0</coordinates></Point>
    </Placemark>
    <Placemark>
      <name>Elisir Coiffure</name>
      <description><![CDATA[Viale Stefano Franscini 38, 6900 Lugano<br>Servizi<br>Accetta: BTC, USDT]]></description>
      <Point><coordinates>8.954746,46.01097,0</coordinates></Point>
    </Placemark>
    <Placemark>
      <name>Élite Caffè</name>
      <description><![CDATA[Via Orti 8, 6900 Lugano<br>Ristoranti e bar<br>Accetta: BTC, USDT]]></description>
      <Point><coordinates>8.956536,46.012517,0</coordinates></Point>
    </Placemark>
    <Placemark>
      <name>Elite Lashes Swiss</name>
      <description><![CDATA[Via dei Solari 4, 6900 Lugano<br>Servizi<br>Accetta: BTC, USDT]]></description>
      <Point><coordinates>8.949944,46.003798,0</coordinates></Point>
    </Placemark>
    <Placemark>
      <name>Ermitage Lugano - Negozio di arredamenti</name>
      <description><![CDATA[Via Giacometti, 6900 Lugano<br>Shopping<br>Accetta: BTC, USDT]]></description>
      <Point><coordinates>8.95541,46.007828,0</coordinates></Point>
    </Placemark>
    <Placemark>
      <name>Erresse Beauty &amp; SPA</name>
      <description><![CDATA[Via Balestra 7, 6900 Lugano<br>Servizi<br>Accetta: BTC, USDT]]></description>
      <Point><coordinates>8.954276,46.008653,0</coordinates></Point>
    </Placemark>
    <Placemark>
      <name>EuropeanCar.ch SA - Autoleasing Senza Banca</name>
      <description><![CDATA[Viale Cassarate 5, 6900 Lugano<br>Servizi<br>Accetta: BTC, USDT]]></description>
      <Point><coordinates>8.960368,46.007084,0</coordinates></Point>
    </Placemark>
    <Placemark>
      <name>Evellyn Beauty</name>
      <description><![CDATA[Via Simen 5, 6900 Lugano<br>Servizi<br>Accetta: BTC, USDT]]></description>
      <Point><coordinates>8.956561,46.012392,0</coordinates></Point>
    </Placemark>
    <Placemark>
      <name>Exel Watches Lugano</name>
      <description><![CDATA[Via Cantonale 1A, 6900 Lugano<br>Shopping<br>Accetta: BTC, USDT]]></description>
      <Point><coordinates>8.949798,46.006814,0</coordinates></Point>
    </Placemark>
    <Placemark>
      <name>Fadezone Barbershop</name>
      <description><![CDATA[Via Zurigo 2, 6900 Lugano<br>Servizi<br>Accetta: BTC, USDT]]></description>
      <Point><coordinates>8.956455,46.011475,0</coordinates></Point>
    </Placemark>
    <Placemark>
      <name>Farmacia Chimica Internazionale</name>
      <description><![CDATA[Via Balestra 22B, 6900 Lugano<br>Servizi<br>Accetta: BTC, USDT]]></description>
      <Point><coordinates>8.958873,46.007615,0</coordinates></Point>
    </Placemark>
    <Placemark>
      <name>Farmacia Nassa</name>
      <description><![CDATA[Via Nassa 21, 6900 Lugano<br>Servizi<br>Accetta: BTC, USDT]]></description>
      <Point><coordinates>8.949653,46.001542,0</coordinates></Point>
    </Placemark>
    <Placemark>
      <name>Farmacia Salus</name>
      <description><![CDATA[Via Canova 7, 6900 Lugano<br>Servizi<br>Accetta: BTC, USDT]]></description>
      <Point><coordinates>8.952424,46.004251,0</coordinates></Point>
    </Placemark>
    <Placemark>
      <name>Farmacia Semper Fidelis</name>
      <description><![CDATA[Via alla Chiesa 1, 6962 Viganello<br>Servizi<br>Accetta: BTC, USDT]]></description>
      <Point><coordinates>8.966496,46.011769,0</coordinates></Point>
    </Placemark>
    <Placemark>
      <name>FC Lugano - Biglietteria</name>
      <description><![CDATA[Via Trevano 100, 6900 Lugano<br>Servizi<br>Accetta: BTC, USDT]]></description>
      <Point><coordinates>8.960491,46.024132,0</coordinates></Point>
    </Placemark>
    <Placemark>
      <name>FC Lugano - Food and Beverages</name>
      <description><![CDATA[Via Trevano 100, 6900 Lugano<br>Ristoranti e bar<br>Accetta: BTC, USDT]]></description>
      <Point><coordinates>8.960263,46.023931,0</coordinates></Point>
    </Placemark>
    <Placemark>
      <name>FC Lugano - Merchandising</name>
      <description><![CDATA[Via Trevano 100, 6900 Lugano<br>Shopping<br>Accetta: BTC, USDT]]></description>
      <Point><coordinates>8.960263,46.023931,0</coordinates></Point>
    </Placemark>
    <Placemark>
      <name>Flora Ticino</name>
      <description><![CDATA[Via Trevano 89, 6900 Lugano<br>Shopping<br>Accetta: BTC, USDT]]></description>
      <Point><coordinates>8.957716,46.020701,0</coordinates></Point>
    </Placemark>
    <Placemark>
      <name>Florart Lugano</name>
      <description><![CDATA[Via Sorengo 2, 6900 Lugano<br>Shopping<br>Accetta: BTC, USDT]]></description>
      <Point><coordinates>8.944186,46.005498,0</coordinates></Point>
    </Placemark>
    <Placemark>
      <name>Frutor fruttivendolo</name>
      <description><![CDATA[Via Fusoni 5, 6900 Lugano<br>Ristoranti e bar<br>Accetta: BTC, USDT]]></description>
      <Point><coordinates>8.958838,46.009369,0</coordinates></Point>
    </Placemark>
    <Placemark>
      <name>Fully Burgers and Fries</name>
      <description><![CDATA[Via Pretorio 9, 6900 Lugano<br>Ristoranti e bar<br>Accetta: BTC, USDT]]></description>
      <Point><coordinates>8.951769,46.006249,0</coordinates></Point>
    </Placemark>
    <Placemark>
      <name>Gabbani Enoteca</name>
      <description><![CDATA[Piazza Cioccaro 1, 6900 Lugano<br>Ristoranti e bar<br>Accetta: BTC, USDT]]></description>
      <Point><coordinates>8.950176,46.004295,0</coordinates></Point>
    </Placemark>
    <Placemark>
      <name>Gabbani Formaggeria</name>
      <description><![CDATA[Piazza Cioccaro 1, 6900 Lugano<br>Ristoranti e bar<br>Accetta: BTC, USDT]]></description>
      <Point><coordinates>8.950176,46.004295,0</coordinates></Point>
    </Placemark>
    <Placemark>
      <name>Gabbani Frutteto</name>
      <description><![CDATA[Piazza Cioccaro 1, 6900 Lugano<br>Ristoranti e bar<br>Accetta: BTC, USDT]]></description>
      <Point><coordinates>8.950176,46.004295,0</coordinates></Point>
    </Placemark>
    <Placemark>
      <name>Gabbani Macelleria</name>
      <description><![CDATA[Piazza Cioccaro 1, 6900 Lugano<br>Ristoranti e bar<br>Accetta: BTC, USDT]]></description>
      <Point><coordinates>8.950176,46.004295,0</coordinates></Point>
    </Placemark>
    <Placemark>
      <name>Gabbani Panetteria</name>
      <description><![CDATA[Piazza Cioccaro 1, 6900 Lugano<br>Ristoranti e bar<br>Accetta: BTC, USDT]]></description>
      <Point><coordinates>8.950176,46.004295,0</coordinates></Point>
    </Placemark>
    <Placemark>
      <name>Gabbani Portici</name>
      <description><![CDATA[Via Pessina 12, 6900 Lugano<br>Ristoranti e bar<br>Accetta: BTC, USDT]]></description>
      <Point><coordinates>8.95044,46.004208,0</coordinates></Point>
    </Placemark>
    <Placemark>
      <name>Gabrielli Hair Concept</name>
      <description><![CDATA[Vicolo del Lido 1, 6900 Lugano<br>Servizi<br>Accetta: BTC, USDT]]></description>
      <Point><coordinates>8.950381,46.003362,0</coordinates></Point>
    </Placemark>
    <Placemark>
      <name>Galleria Doppia V - Atelier Walter</name>
      <description><![CDATA[Via Moncucco 3, 6900 Lugano<br>Shopping<br>Accetta: BTC, USDT]]></description>
      <Point><coordinates>8.942837,46.005603,0</coordinates></Point>
    </Placemark>
    <Placemark>
      <name>GastroSnack Bernasconi</name>
      <description><![CDATA[Via Nassa 7, 6900 Lugano<br>Ristoranti e bar<br>Accetta: BTC, USDT]]></description>
      <Point><coordinates>8.950038,46.00272,0</coordinates></Point>
    </Placemark>
    <Placemark>
      <name>Gea 2025 Comic Art Fest (dal 16 ottobre al 15 novembre)</name>
      <description><![CDATA[Via Cattedrale 3, 6900 Lugano<br>Servizi<br>Accetta: BTC, USDT]]></description>
      <Point><coordinates>8.949613,46.004606,0</coordinates></Point>
    </Placemark>
    <Placemark>
      <name>Gelateria naturale - C'era una volta</name>
      <description><![CDATA[Via Dufour 1, 6900 Lugano<br>Ristoranti e bar<br>Accetta: BTC, USDT]]></description>
      <Point><coordinates>8.951337,46.008906,0</coordinates></Point>
    </Placemark>
    <Placemark>
      <name>Gioielleria F&amp;H 18.81</name>
      <description><![CDATA[Via Nassa 3 A, 6900 Lugano<br>Shopping<br>Accetta: BTC, USDT]]></description>
      <Point><coordinates>8.95056,46.003527,0</coordinates></Point>
    </Placemark>
    <Placemark>
      <name>Gioielleria Fortuny</name>
      <description><![CDATA[Via Nassa 64, 6900 Lugano<br>Shopping<br>Accetta: BTC, USDT]]></description>
      <Point><coordinates>8.949052,46.000849,0</coordinates></Point>
    </Placemark>
    <Placemark>
      <name>Gioielleria Preziosi</name>
      <description><![CDATA[Viale Carlo Cattaneo 1, 6900 Lugano<br>Shopping<br>Accetta: BTC, USDT]]></description>
      <Point><coordinates>8.955752,46.005712,0</coordinates></Point>
    </Placemark>
    <Placemark>
      <name>Gioielleria Rocca 1794</name>
      <description><![CDATA[Via Nassa 4, 6900 Lugano<br>Shopping<br>Accetta: BTC, USDT]]></description>
      <Point><coordinates>8.949671,46.002629,0</coordinates></Point>
    </Placemark>
    <Placemark>
      <name>GIS The International School of Lugano</name>
      <description><![CDATA[Via Senago 42 E, 6912 Pazzallo<br>Servizi<br>Accetta: BTC, USDT]]></description>
      <Point><coordinates>8.932444,45.983656,0</coordinates></Point>
    </Placemark>
    <Placemark>
      <name>Giulia Beauty Lounge</name>
      <description><![CDATA[Via al Chioso 28, 6900 Lugano<br>Servizi<br>Accetta: BTC, USDT]]></description>
      <Point><coordinates>8.962929,46.008965,0</coordinates></Point>
    </Placemark>
    <Placemark>
      <name>Globocar</name>
      <description><![CDATA[Via Pian Scairolo 17, 6912 Pazzallo<br>Servizi<br>Accetta: BTC, USDT]]></description>
      <Point><coordinates>8.931781,45.983538,0</coordinates></Point>
    </Placemark>
    <Placemark>
      <name>Grande Caffè Bistrot</name>
      <description><![CDATA[Via Carducci 1, 6900 Lugano<br>Ristoranti e bar<br>Accetta: BTC, USDT]]></description>
      <Point><coordinates>8.953516,46.004845,0</coordinates></Point>
    </Placemark>
    <Placemark>
      <name>Groovy Concept</name>
      <description><![CDATA[Via Vegezzi 5, 6900 Lugano<br>Shopping<br>Accetta: BTC, USDT]]></description>
      <Point><coordinates>8.952977,46.004894,0</coordinates></Point>
    </Placemark>
    <Placemark>
      <name>Guess</name>
      <description><![CDATA[Via Pessina 13, 6900 Lugano<br>Shopping<br>Accetta: BTC, USDT]]></description>
      <Point><coordinates>8.950298,46.004211,0</coordinates></Point>
    </Placemark>
    <Placemark>
      <name>Guess Accessories</name>
      <description><![CDATA[Via Pessina 6, 6900 Lugano<br>Shopping<br>Accetta: BTC, USDT]]></description>
      <Point><coordinates>8.950431,46.003937,0</coordinates></Point>
    </Placemark>
    <Placemark>
      <name>Hair L'Essenza</name>
      <description><![CDATA[Via Balestra 9, 6900 Lugano<br>Servizi<br>Accetta: BTC, USDT]]></description>
      <Point><coordinates>8.95422,46.009228,0</coordinates></Point>
    </Placemark>
    <Placemark>
      <name>Health Park</name>
      <description><![CDATA[Via Balestra 11, 6900 Lugano<br>Servizi<br>Accetta: BTC, USDT]]></description>
      <Point><coordinates>8.954681,46.008077,0</coordinates></Point>
    </Placemark>
    <Placemark>
      <name>Healthy Life Clinic</name>
      <description><![CDATA[Via Maraini 19, 6963 Pregassona<br>Servizi<br>Accetta: BTC, USDT]]></description>
      <Point><coordinates>8.968887,46.027258,0</coordinates></Point>
    </Placemark>
    <Placemark>
      <name>HelvetiaCom</name>
      <description><![CDATA[Via Balestra 27, 6900 Lugano<br>Servizi<br>Accetta: BTC, USDT]]></description>
      <Point><coordinates>8.958039,46.008188,0</coordinates></Point>
    </Placemark>
    <Placemark>
      <name>Historian Lugano</name>
      <description><![CDATA[Via al Forte 10, 6900 Lugano<br>Shopping<br>Accetta: BTC, USDT]]></description>
      <Point><coordinates>8.953764,46.005575,0</coordinates></Point>
    </Placemark>
    <Placemark>
      <name>Hotel Acquarello</name>
      <description><![CDATA[Piazza Cioccaro 9, 6900 Lugano<br>Hotel<br>Accetta: BTC, USDT]]></description>
      <Point><coordinates>8.949325,46.004599,0</coordinates></Point>
    </Placemark>
    <Placemark>
      <name>Hotel Colorado</name>
      <description><![CDATA[Via Maraini 19, 6900 Lugano<br>Hotel<br>Accetta: BTC, USDT]]></description>
      <Point><coordinates>8.944326,45.998503,0</coordinates></Point>
    </Placemark>
    <Placemark>
      <name>Hotel Delfino</name>
      <description><![CDATA[Via Cassarinetta 6, 6900 Lugano<br>Hotel<br>Accetta: BTC, USDT]]></description>
      <Point><coordinates>8.942112,45.993661,0</coordinates></Point>
    </Placemark>
    <Placemark>
      <name>Hotel Gabbani</name>
      <description><![CDATA[Piazza Cioccaro 1, 6900 Lugano<br>Hotel<br>Accetta: BTC, USDT]]></description>
      <Point><coordinates>8.950176,46.004295,0</coordinates></Point>
    </Placemark>
    <Placemark>
      <name>Hotel Pestalozzi Lugano</name>
      <description><![CDATA[Piazza Indipendenza 9, 6900 Lugano<br>Hotel<br>Accetta: BTC, USDT]]></description>
      <Point><coordinates>8.955034,46.005769,0</coordinates></Point>
    </Placemark>
    <Placemark>
      <name>Hotel Zurigo Downtown</name>
      <description><![CDATA[Corso Pestalozzi 13, 6900 Lugano<br>Hotel<br>Accetta: BTC, USDT]]></description>
      <Point><coordinates>8.953372,46.006121,0</coordinates></Point>
    </Placemark>
    <Placemark>
      <name>IFA Trade SA</name>
      <description><![CDATA[Via Trevano 11, 6900 Lugano<br>Servizi<br>Accetta: BTC, USDT]]></description>
      <Point><coordinates>8.954872,46.013634,0</coordinates></Point>
    </Placemark>
    <Placemark>
      <name>Il Cannolo sua eccellenza</name>
      <description><![CDATA[Via Lucchini 1, 6900 Lugano<br>Ristoranti e bar<br>Accetta: BTC, USDT]]></description>
      <Point><coordinates>8.957203,46.005791,0</coordinates></Point>
    </Placemark>
    <Placemark>
      <name>Il Fermento</name>
      <description><![CDATA[Via Marconi 2, 6900 Lugano<br>Ristoranti e bar<br>Accetta: BTC, USDT]]></description>
      <Point><coordinates>8.954098,46.003876,0</coordinates></Point>
    </Placemark>
    <Placemark>
      <name>Il Piccolo Principe - Ottico Michel</name>
      <description><![CDATA[Corso Pestalozzi 4, 6900 Lugano<br>Shopping<br>Accetta: BTC, USDT]]></description>
      <Point><coordinates>8.951227,46.006146,0</coordinates></Point>
    </Placemark>
    <Placemark>
      <name>Imago Art Gallery</name>
      <description><![CDATA[Via Nassa 46, 6900 Lugano<br>Shopping<br>Accetta: BTC, USDT]]></description>
      <Point><coordinates>8.94943,46.00171,0</coordinates></Point>
    </Placemark>
    <Placemark>
      <name>InnovaComix 26.02 - 01.03.2026</name>
      <description><![CDATA[Piazza Indipendenza 1 - Villa Ciani, 6900 Lugano<br>Servizi<br>Accetta: BTC, USDT]]></description>
      <Point><coordinates>8.956551,46.004867,0</coordinates></Point>
    </Placemark>
    <Placemark>
      <name>Intersport Zappa</name>
      <description><![CDATA[Via Peri 15, 6900 Lugano<br>Shopping<br>Accetta: BTC, USDT]]></description>
      <Point><coordinates>8.950551,46.00585,0</coordinates></Point>
    </Placemark>
    <Placemark>
      <name>Istituto Sanders</name>
      <description><![CDATA[Via Pretorio 11, 6900 Lugano<br>Servizi<br>Accetta: BTC, USDT]]></description>
      <Point><coordinates>8.951784,46.00655,0</coordinates></Point>
    </Placemark>
    <Placemark>
      <name>Juliana Jewelry</name>
      <description><![CDATA[Via Nassa 64, 6900 Lugano<br>Shopping<br>Accetta: BTC, USDT]]></description>
      <Point><coordinates>8.949063,46.000838,0</coordinates></Point>
    </Placemark>
    <Placemark>
      <name>Jungle Club</name>
      <description><![CDATA[Via Cantonale 1A, 6900 Lugano<br>Servizi<br>Accetta: BTC, USDT]]></description>
      <Point><coordinates>8.949804,46.006707,0</coordinates></Point>
    </Placemark>
    <Placemark>
      <name>K Moto Lugano</name>
      <description><![CDATA[Via Balestra 39 A, 6900 Lugano<br>Servizi<br>Accetta: BTC, USDT]]></description>
      <Point><coordinates>8.959914,46.007959,0</coordinates></Point>
    </Placemark>
    <Placemark>
      <name>KATUBOSHY CONCEPT STORE Sartoria creativa</name>
      <description><![CDATA[Via Peri, in fondo alla corte 9, 6900 Lugano<br>Servizi<br>Accetta: BTC, USDT]]></description>
      <Point><coordinates>8.950294,46.005901,0</coordinates></Point>
    </Placemark>
    <Placemark>
      <name>Kavin Barbershop</name>
      <description><![CDATA[Via Bagutti 8, 6900 Lugano<br>Servizi<br>Accetta: BTC, USDT]]></description>
      <Point><coordinates>8.956418,46.014085,0</coordinates></Point>
    </Placemark>
    <Placemark>
      <name>Kinetic Center</name>
      <description><![CDATA[Via Pelli 13, 6900 Lugano<br>Servizi<br>Accetta: BTC, USDT]]></description>
      <Point><coordinates>8.950831,46.008198,0</coordinates></Point>
    </Placemark>
    <Placemark>
      <name>Kios-ka</name>
      <description><![CDATA[Via alla Chiesa 1, 6962 Viganello<br>Ristoranti e bar<br>Accetta: BTC, USDT]]></description>
      <Point><coordinates>8.966496,46.011769,0</coordinates></Point>
    </Placemark>
    <Placemark>
      <name>Klasse A Parrucchieri</name>
      <description><![CDATA[Via Nassa 3 A, 6900 Lugano<br>Servizi<br>Accetta: BTC, USDT]]></description>
      <Point><coordinates>8.950527,46.003367,0</coordinates></Point>
    </Placemark>
    <Placemark>
      <name>Kohakinho</name>
      <description><![CDATA[Via della Posta 4, 6900 Lugano<br>Ristoranti e bar<br>Accetta: BTC, USDT]]></description>
      <Point><coordinates>8.952944,46.004655,0</coordinates></Point>
    </Placemark>
    <Placemark>
      <name>Kost Make-Up</name>
      <description><![CDATA[Via Serafino Balestra 4, 6900 Lugano<br>Shopping<br>Accetta: BTC, USDT]]></description>
      <Point><coordinates>8.953273,46.007652,0</coordinates></Point>
    </Placemark>
    <Placemark>
      <name>Kyoto Sushi</name>
      <description><![CDATA[Via Pazzalino 15, 6962 Viganello<br>Ristoranti e bar<br>Accetta: BTC, USDT]]></description>
      <Point><coordinates>8.97033,46.015837,0</coordinates></Point>
    </Placemark>
    <Placemark>
      <name>La Bohème</name>
      <description><![CDATA[Via Cattedrale 6, 6900 Lugano<br>Ristoranti e bar<br>Accetta: BTC, USDT]]></description>
      <Point><coordinates>8.949501,46.004854,0</coordinates></Point>
    </Placemark>
    <Placemark>
      <name>La Caveja</name>
      <description><![CDATA[Viale Cattaneo 15, 6900 Lugano<br>Ristoranti e bar<br>Accetta: BTC, USDT]]></description>
      <Point><coordinates>8.958279,46.006179,0</coordinates></Point>
    </Placemark>
    <Placemark>
      <name>La Caveja Lugano</name>
      <description><![CDATA[Via Dufour 2, 6900 Lugano<br>Ristoranti e bar<br>Accetta: BTC, USDT]]></description>
      <Point><coordinates>8.951865,46.008626,0</coordinates></Point>
    </Placemark>
    <Placemark>
      <name>La Cucina di Alice</name>
      <description><![CDATA[Riva Vela 4, 6900 Lugano<br>Ristoranti e bar<br>Accetta: BTC, USDT]]></description>
      <Point><coordinates>8.950041,46.002163,0</coordinates></Point>
    </Placemark>
    <Placemark>
      <name>La Dispensa</name>
      <description><![CDATA[Via della Posta 4, 6900 Lugano<br>Ristoranti e bar<br>Accetta: BTC, USDT]]></description>
      <Point><coordinates>8.952944,46.004655,0</coordinates></Point>
    </Placemark>
    <Placemark>
      <name>La Fioreria</name>
      <description><![CDATA[Via Maggio 53, 6900 Lugano<br>Shopping<br>Accetta: BTC, USDT]]></description>
      <Point><coordinates>8.967741,46.009254,0</coordinates></Point>
    </Placemark>
    <Placemark>
      <name>La Kloche</name>
      <description><![CDATA[Via Pioda 11, 6900 Lugano<br>Ristoranti e bar<br>Accetta: BTC, USDT]]></description>
      <Point><coordinates>8.954122,46.007553,0</coordinates></Point>
    </Placemark>
    <Placemark>
      <name>La signora degli anelli</name>
      <description><![CDATA[Via Cattedrale 6, 6900 Lugano<br>Shopping<br>Accetta: BTC, USDT]]></description>
      <Point><coordinates>8.949501,46.004854,0</coordinates></Point>
    </Placemark>
    <Placemark>
      <name>LAC Lugano Arte e Cultura</name>
      <description><![CDATA[Piazza Luini 6, 6900 Lugano<br>Servizi<br>Accetta: BTC, USDT]]></description>
      <Point><coordinates>8.947884,45.999431,0</coordinates></Point>
    </Placemark>
    <Placemark>
      <name>Lala Caffè</name>
      <description><![CDATA[Via Industria 20, 6963 Pregassona<br>Ristoranti e bar<br>Accetta: BTC, USDT]]></description>
      <Point><coordinates>8.96525,46.020643,0</coordinates></Point>
    </Placemark>
    <Placemark>
      <name>Lavanderia San Nicolao</name>
      <description><![CDATA[Via al Nido 1, 6900 Lugano<br>Servizi<br>Accetta: BTC, USDT]]></description>
      <Point><coordinates>8.942078,46.006893,0</coordinates></Point>
    </Placemark>
    <Placemark>
      <name>LEFTY</name>
      <description><![CDATA[Corso Pestalozzi 12, 6900 Lugano<br>Ristoranti e bar<br>Accetta: BTC, USDT]]></description>
      <Point><coordinates>8.954445,46.005677,0</coordinates></Point>
    </Placemark>
    <Placemark>
      <name>LepLaw CH</name>
      <description><![CDATA[Corso Elvezia 27, 6900 Lugano<br>Servizi<br>Accetta: BTC, USDT]]></description>
      <Point><coordinates>8.955771,46.008978,0</coordinates></Point>
    </Placemark>
    <Placemark>
      <name>Libera Events - Organizzazione eventi</name>
      <description><![CDATA[Via Carducci 1, 6900 Lugano<br>Servizi<br>Accetta: BTC, USDT]]></description>
      <Point><coordinates>8.953099,46.005441,0</coordinates></Point>
    </Placemark>
    <Placemark>
      <name>Libreria Dietro L'Angolo</name>
      <description><![CDATA[Piazza Cioccaro 10, 6900 Lugano<br>Shopping<br>Accetta: BTC, USDT]]></description>
      <Point><coordinates>8.949895,46.005146,0</coordinates></Point>
    </Placemark>
    <Placemark>
      <name>Lievito Madre</name>
      <description><![CDATA[Strada di Pregassona 54, 6963 Pregassona<br>Ristoranti e bar<br>Accetta: BTC, USDT]]></description>
      <Point><coordinates>8.976556,46.025269,0</coordinates></Point>
    </Placemark>
    <Placemark>
      <name>Linea Sana Lugano</name>
      <description><![CDATA[Via Pretorio 11, 6900 Lugano<br>Servizi<br>Accetta: BTC, USDT]]></description>
      <Point><coordinates>8.951796,46.006562,0</coordinates></Point>
    </Placemark>
    <Placemark>
      <name>Locanda Castagnola</name>
      <description><![CDATA[Contrada Vecchio Municipio 1, 6976 Castagnola<br>Hotel<br>Accetta: BTC, USDT]]></description>
      <Point><coordinates>8.97745,46.001328,0</coordinates></Point>
    </Placemark>
    <Placemark>
      <name>Love Estetica</name>
      <description><![CDATA[Via Giuseppe Motta 42, 6900 Lugano<br>Servizi<br>Accetta: BTC, USDT]]></description>
      <Point><coordinates>8.947884,46.001335,0</coordinates></Point>
    </Placemark>
    <Placemark>
      <name>Love is in the Hair</name>
      <description><![CDATA[Via delle Scuole 1, 6900 Lugano<br>Servizi<br>Accetta: BTC, USDT]]></description>
      <Point><coordinates>8.966552,46.006184,0</coordinates></Point>
    </Placemark>
    <Placemark>
      <name>Lubrano Elettrodomestici</name>
      <description><![CDATA[Via Mercoli 7, 6900 Lugano<br>Shopping<br>Accetta: BTC, USDT]]></description>
      <Point><coordinates>8.956521,46.015996,0</coordinates></Point>
    </Placemark>
    <Placemark>
      <name>LugaDrive</name>
      <description><![CDATA[-, 6963 Pregassona<br>Servizi<br>Accetta: BTC, USDT]]></description>
      <Point><coordinates>8.975589,46.020805,0</coordinates></Point>
    </Placemark>
    <Placemark>
      <name>Lugano Plan B Info Point</name>
      <description><![CDATA[Via Motta 7 A, 6900 Lugano<br>Shopping<br>Accetta: BTC, USDT]]></description>
      <Point><coordinates>8.949825,46.004188,0</coordinates></Point>
    </Placemark>
    <Placemark>
      <name>Lugano Top Watches</name>
      <description><![CDATA[Via Nassa 52, 6900 Lugano<br>Shopping<br>Accetta: BTC, USDT]]></description>
      <Point><coordinates>8.949412,46.001595,0</coordinates></Point>
    </Placemark>
    <Placemark>
      <name>Lungo Lugano</name>
      <description><![CDATA[Via Cattedrale 4, 6900 Lugano<br>Shopping<br>Accetta: BTC, USDT]]></description>
      <Point><coordinates>8.949578,46.004689,0</coordinates></Point>
    </Placemark>
    <Placemark>
      <name>Luther Art Ink</name>
      <description><![CDATA[Stràda de Sòra 10, 6968 Sonvico<br>Servizi<br>Accetta: BTC, USDT]]></description>
      <Point><coordinates>8.988127,46.05251,0</coordinates></Point>
    </Placemark>
    <Placemark>
      <name>Lvgano Barbershop</name>
      <description><![CDATA[Corso Pestalozzi 14, 6900 Lugano<br>Servizi<br>Accetta: BTC, USDT]]></description>
      <Point><coordinates>8.954708,46.005666,0</coordinates></Point>
    </Placemark>
    <Placemark>
      <name>M Holding SAGL</name>
      <description><![CDATA[Piazza Cioccaro 4, 6900 Lugano<br>Servizi<br>Accetta: BTC, USDT]]></description>
      <Point><coordinates>8.950062,46.00492,0</coordinates></Point>
    </Placemark>
    <Placemark>
      <name>Magazine Luxury Report</name>
      <description><![CDATA[Contrada di Sassello 10, 6900 Lugano<br>Servizi<br>Accetta: BTC, USDT]]></description>
      <Point><coordinates>8.949793,46.003986,0</coordinates></Point>
    </Placemark>
    <Placemark>
      <name>Maison Clinic</name>
      <description><![CDATA[Salita dei Frati 2A, 6900 Lugano<br>Servizi<br>Accetta: BTC, USDT]]></description>
      <Point><coordinates>8.949796,46.007581,0</coordinates></Point>
    </Placemark>
    <Placemark>
      <name>Màkari Gastronomia</name>
      <description><![CDATA[Via alle Caragne 3, 6900 Lugano<br>Ristoranti e bar<br>Accetta: BTC, USDT]]></description>
      <Point><coordinates>8.955872,46.015345,0</coordinates></Point>
    </Placemark>
    <Placemark>
      <name>Make up Express di Lisa Sommella</name>
      <description><![CDATA[Via Maggio 43, 6900 Lugano<br>Servizi<br>Accetta: BTC, USDT]]></description>
      <Point><coordinates>8.965931,46.008899,0</coordinates></Point>
    </Placemark>
    <Placemark>
      <name>Marco Lucchetti Art Gallery</name>
      <description><![CDATA[Via Cattedrale 3, 6900 Lugano<br>Shopping<br>Accetta: BTC, USDT]]></description>
      <Point><coordinates>8.949599,46.004566,0</coordinates></Point>
    </Placemark>
    <Placemark>
      <name>Marilù Shoes &amp; Bags</name>
      <description><![CDATA[Vicolo Ariosto 4, 6900 Lugano<br>Shopping<br>Accetta: BTC, USDT]]></description>
      <Point><coordinates>8.95129,46.005932,0</coordinates></Point>
    </Placemark>
    <Placemark>
      <name>Maros Gioielli - MonVis Orologi</name>
      <description><![CDATA[Via Carducci 4, 6900 Lugano<br>Shopping<br>Accetta: BTC, USDT]]></description>
      <Point><coordinates>8.953366,46.004783,0</coordinates></Point>
    </Placemark>
    <Placemark>
      <name>Maruska Riva Gioielli</name>
      <description><![CDATA[Cattedrale 13, 6900 Lugano<br>Shopping<br>Accetta: BTC, USDT]]></description>
      <Point><coordinates>8.94889,46.005101,0</coordinates></Point>
    </Placemark>
    <Placemark>
      <name>Masi Palazzo Reali</name>
      <description><![CDATA[Via Canova 10, 6900 Lugano<br>Servizi<br>Accetta: BTC, USDT]]></description>
      <Point><coordinates>8.953336,46.004177,0</coordinates></Point>
    </Placemark>
    <Placemark>
      <name>Matrix VR - Realtà virtuale e Simulatori di guida</name>
      <description><![CDATA[Str. Ponte di Valle 8, 6964 Davesco<br>Servizi<br>Accetta: BTC, USDT]]></description>
      <Point><coordinates>8.974423,46.032068,0</coordinates></Point>
    </Placemark>
    <Placemark>
      <name>Mauri Concept Food &amp; Beverage</name>
      <description><![CDATA[Via Vegezzi 4, 6900 Lugano<br>Ristoranti e bar<br>Accetta: BTC, USDT]]></description>
      <Point><coordinates>8.952082,46.004539,0</coordinates></Point>
    </Placemark>
    <Placemark>
      <name>McDonald’s Lugano</name>
      <description><![CDATA[Riva Albertolli 1, 6900 Lugano<br>Ristoranti e bar<br>Accetta: BTC, USDT]]></description>
      <Point><coordinates>8.953872,46.003835,0</coordinates></Point>
    </Placemark>
    <Placemark>
      <name>mem di Gentili Maurizio</name>
      <description><![CDATA[Via Giosuè Carducci 1, 6900 Lugano<br>Shopping<br>Accetta: BTC, USDT]]></description>
      <Point><coordinates>8.953121,46.005269,0</coordinates></Point>
    </Placemark>
    <Placemark>
      <name>Mercato di Dino Mazzalovo</name>
      <description><![CDATA[Piazzetta via Canova, 6900 Lugano<br>Shopping<br>Accetta: BTC, USDT]]></description>
      <Point><coordinates>8.952093,46.004158,0</coordinates></Point>
    </Placemark>
    <Placemark>
      <name>Mia Linnéa Scarati - Parrucchiera</name>
      <description><![CDATA[c/o MDP. Michele Di Paolo AESTHETIC HUB, Via Pioda 9, 6900 Lugano<br>Servizi<br>Accetta: BTC, USDT]]></description>
      <Point><coordinates>8.953904,46.007285,0</coordinates></Point>
    </Placemark>
    <Placemark>
      <name>Mini Groovy</name>
      <description><![CDATA[Piazza S. Rocco 2, 6900 Lugano<br>Shopping<br>Accetta: BTC, USDT]]></description>
      <Point><coordinates>8.953325,46.004601,0</coordinates></Point>
    </Placemark>
    <Placemark>
      <name>MisterX The Gentlemen's Beauty&amp;Barber Shop</name>
      <description><![CDATA[Piazzale Stazione 6, 6900 Lugano<br>Servizi<br>Accetta: BTC, USDT]]></description>
      <Point><coordinates>8.946915,46.005556,0</coordinates></Point>
    </Placemark>
    <Placemark>
      <name>Moncucchetto</name>
      <description><![CDATA[Via Marietta Crivelli Torricelli 27, 6900 Lugano<br>Ristoranti e bar<br>Accetta: BTC, USDT]]></description>
      <Point><coordinates>8.938252,46.002391,0</coordinates></Point>
    </Placemark>
    <Placemark>
      <name>Monster House Tattoo &amp; Piercing</name>
      <description><![CDATA[Via Canonica 5, 6900 Lugano<br>Servizi<br>Accetta: BTC, USDT]]></description>
      <Point><coordinates>8.95675,46.006837,0</coordinates></Point>
    </Placemark>
    <Placemark>
      <name>MonVis Orologi</name>
      <description><![CDATA[Via Carducci 4, 6900 Lugano<br>Shopping<br>Accetta: BTC, USDT]]></description>
      <Point><coordinates>8.953259,46.004793,0</coordinates></Point>
    </Placemark>
    <Placemark>
      <name>Moogi Kebab</name>
      <description><![CDATA[Via Camoghè 1, 6900 Lugano<br>Ristoranti e bar<br>Accetta: BTC, USDT]]></description>
      <Point><coordinates>8.957001,46.012009,0</coordinates></Point>
    </Placemark>
    <Placemark>
      <name>Moogi Kebab | Parco Ciani</name>
      <description><![CDATA[Viale Cattaneo 4, 6900 Lugano<br>Ristoranti e bar<br>Accetta: BTC, USDT]]></description>
      <Point><coordinates>8.960772,46.005797,0</coordinates></Point>
    </Placemark>
    <Placemark>
      <name>Mr. Vino</name>
      <description><![CDATA[Via Carlo Maderno 23, 6900 Lugano<br>Ristoranti e bar<br>Accetta: BTC, USDT]]></description>
      <Point><coordinates>8.955326,46.010909,0</coordinates></Point>
    </Placemark>
    <Placemark>
      <name>Musicdoor</name>
      <description><![CDATA[Via dei Gorini 2, 6900 Lugano<br>Shopping<br>Accetta: BTC, USDT]]></description>
      <Point><coordinates>8.950806,46.004109,0</coordinates></Point>
    </Placemark>
    <Placemark>
      <name>MUSTIS- Pizza - Kebab - Hamburger</name>
      <description><![CDATA[Viale Franscini 23, 6900 Lugano<br>Ristoranti e bar<br>Accetta: BTC, USDT]]></description>
      <Point><coordinates>8.954273,46.010877,0</coordinates></Point>
    </Placemark>
    <Placemark>
      <name>NCC Lugano</name>
      <description><![CDATA[Strada di Pregassona 43C, 6963 Pregassona<br>Servizi<br>Accetta: BTC, USDT]]></description>
      <Point><coordinates>8.974509,46.022723,0</coordinates></Point>
    </Placemark>
    <Placemark>
      <name>Negio Food, Kebab &amp; Grill</name>
      <description><![CDATA[Piazza dell'Indipendenza 1, 6900 Lugano<br>Ristoranti e bar<br>Accetta: BTC, USDT]]></description>
      <Point><coordinates>8.954771,46.005495,0</coordinates></Point>
    </Placemark>
    <Placemark>
      <name>New Limousine</name>
      <description><![CDATA[Via Carona 62, 6900 Lugano<br>Servizi<br>Accetta: BTC, USDT]]></description>
      <Point><coordinates>8.940344,45.980874,0</coordinates></Point>
    </Placemark>
    <Placemark>
      <name>New Motors</name>
      <description><![CDATA[Via Brentani 11, 6900 Lugano<br>Servizi<br>Accetta: BTC, USDT]]></description>
      <Point><coordinates>8.960339,46.019136,0</coordinates></Point>
    </Placemark>
    <Placemark>
      <name>No Name</name>
      <description><![CDATA[Via Pelli 9, 6900 Lugano<br>Ristoranti e bar<br>Accetta: BTC, USDT]]></description>
      <Point><coordinates>8.950772,46.007954,0</coordinates></Point>
    </Placemark>
    <Placemark>
      <name>Noleggio Auto DG Buildings</name>
      <description><![CDATA[Vicolo Concordia 1, 6932 Breganzona<br>Servizi<br>Accetta: BTC, USDT]]></description>
      <Point><coordinates>8.935757,46.010939,0</coordinates></Point>
    </Placemark>
    <Placemark>
      <name>OAKBERRY Açaí Bowls</name>
      <description><![CDATA[Corso Enrico Pestalozzi 4, 6900 Lugano<br>Ristoranti e bar<br>Accetta: BTC, USDT]]></description>
      <Point><coordinates>8.951208,46.006314,0</coordinates></Point>
    </Placemark>
    <Placemark>
      <name>Ortotecnica - Ortopedia|Riabilitazione|Calzoleria</name>
      <description><![CDATA[Viale Cassarate 1, 6900 Lugano<br>Shopping<br>Accetta: BTC, USDT]]></description>
      <Point><coordinates>8.960428,46.006164,0</coordinates></Point>
    </Placemark>
    <Placemark>
      <name>Osteria Odeon Cafè</name>
      <description><![CDATA[Via Peri 14, 6900 Lugano<br>Ristoranti e bar<br>Accetta: BTC, USDT]]></description>
      <Point><coordinates>8.950811,46.005948,0</coordinates></Point>
    </Placemark>
    <Placemark>
      <name>Osteria Pizzeria Pazzallo</name>
      <description><![CDATA[Vicolo Bossi 2, 6912 Pazzallo<br>Ristoranti e bar<br>Accetta: BTC, USDT]]></description>
      <Point><coordinates>8.943034,45.984755,0</coordinates></Point>
    </Placemark>
    <Placemark>
      <name>Ottica Götte</name>
      <description><![CDATA[Via Pessina 8, 6900 Lugano<br>Shopping<br>Accetta: BTC, USDT]]></description>
      <Point><coordinates>8.950421,46.00405,0</coordinates></Point>
    </Placemark>
    <Placemark>
      <name>Ottica Ticinese</name>
      <description><![CDATA[Via alla Bozzoreda 37, 6963 Pregassona<br>Shopping<br>Accetta: BTC, USDT]]></description>
      <Point><coordinates>8.967362,46.023919,0</coordinates></Point>
    </Placemark>
    <Placemark>
      <name>Ottica Vicari</name>
      <description><![CDATA[Via Balestra 4, 6900 Lugano<br>Shopping<br>Accetta: BTC, USDT]]></description>
      <Point><coordinates>8.953273,46.007652,0</coordinates></Point>
    </Placemark>
    <Placemark>
      <name>Ottica Visio</name>
      <description><![CDATA[Via Motta 12, 6900 Lugano<br>Shopping<br>Accetta: BTC, USDT]]></description>
      <Point><coordinates>8.949555,46.003931,0</coordinates></Point>
    </Placemark>
    <Placemark>
      <name>Ottico Michel di Claudia</name>
      <description><![CDATA[Via Pretorio 14, 6900 Lugano<br>Shopping<br>Accetta: BTC, USDT]]></description>
      <Point><coordinates>8.952167,46.006302,0</coordinates></Point>
    </Placemark>
    <Placemark>
      <name>P356 - Concessionario multimarca</name>
      <description><![CDATA[Via alla Stampa 6 B, 6964 Davesco<br>Servizi<br>Accetta: BTC, USDT]]></description>
      <Point><coordinates>8.973213,46.036831,0</coordinates></Point>
    </Placemark>
    <Placemark>
      <name>Pane e Pomodoro</name>
      <description><![CDATA[Quartiere Maghetti 10, 6900 Lugano<br>Ristoranti e bar<br>Accetta: BTC, USDT]]></description>
      <Point><coordinates>8.953756,46.005102,0</coordinates></Point>
    </Placemark>
    <Placemark>
      <name>Pasha Truck</name>
      <description><![CDATA[Via Pian Scairolo 48, 6915 Lugano<br>Ristoranti e bar<br>Accetta: BTC, USDT]]></description>
      <Point><coordinates>8.928762,45.98075,0</coordinates></Point>
    </Placemark>
    <Placemark>
      <name>Pasha's</name>
      <description><![CDATA[Via alla Roggia 9, 6962 Viganello<br>Ristoranti e bar<br>Accetta: BTC, USDT]]></description>
      <Point><coordinates>8.963431,46.01047,0</coordinates></Point>
    </Placemark>
    <Placemark>
      <name>Patrick Balmelli - vendita diretta di carne e formaggio</name>
      <description><![CDATA[Rosone 9, 6968 Sonvico<br>Ristoranti e bar<br>Accetta: BTC, USDT]]></description>
      <Point><coordinates>9.015235,46.06787,0</coordinates></Point>
    </Placemark>
    <Placemark>
      <name>Pepita Take Away</name>
      <description><![CDATA[Riva Vincenzo Vela, 6900 Lugano<br>Ristoranti e bar<br>Accetta: BTC, USDT]]></description>
      <Point><coordinates>8.950374,46.002188,0</coordinates></Point>
    </Placemark>
    <Placemark>
      <name>Phonextra</name>
      <description><![CDATA[Via Maderno 24, 6900 Lugano<br>Shopping<br>Accetta: BTC, USDT]]></description>
      <Point><coordinates>8.955635,46.010905,0</coordinates></Point>
    </Placemark>
    <Placemark>
      <name>PiiMove Studio - Fitness e Pilates</name>
      <description><![CDATA[Via Monte Brè 10, 6900 Lugano<br>Servizi<br>Accetta: BTC, USDT]]></description>
      <Point><coordinates>8.958174,46.012031,0</coordinates></Point>
    </Placemark>
    <Placemark>
      <name>Plan B store</name>
      <description><![CDATA[Viale Stefano Faranscini 16, 6900 Lugano<br>Shopping<br>Accetta: BTC, USDT]]></description>
      <Point><coordinates>8.95405,46.009684,0</coordinates></Point>
    </Placemark>
    <Placemark>
      <name>PodoTicino di Gaia Marroffino</name>
      <description><![CDATA[Via Sorengo 2, 6900 Lugano<br>Servizi<br>Accetta: BTC, USDT]]></description>
      <Point><coordinates>8.944076,46.005806,0</coordinates></Point>
    </Placemark>
    <Placemark>
      <name>Pokekiosk</name>
      <description><![CDATA[Via Pretorio 5, 6900 Lugano<br>Shopping<br>Accetta: BTC, USDT]]></description>
      <Point><coordinates>8.952314,46.005883,0</coordinates></Point>
    </Placemark>
    <Placemark>
      <name>Porto Bello!</name>
      <description><![CDATA[Via Foce 11, 6900 Lugano<br>Ristoranti e bar<br>Accetta: BTC, USDT]]></description>
      <Point><coordinates>8.96204,46.003035,0</coordinates></Point>
    </Placemark>
    <Placemark>
      <name>PoW. Space</name>
      <description><![CDATA[Contrada Sassello 8, 6900 Lugano<br>Servizi<br>Accetta: BTC, USDT]]></description>
      <Point><coordinates>8.949915,46.003855,0</coordinates></Point>
    </Placemark>
    <Placemark>
      <name>PoW.Gym (pow.space members only)</name>
      <description><![CDATA[Contrada di Sassello 10, 6900 Lugano<br>Servizi<br>Accetta: BTC, USDT]]></description>
      <Point><coordinates>8.949915,46.003855,0</coordinates></Point>
    </Placemark>
    <Placemark>
      <name>PR cleaning System</name>
      <description><![CDATA[Via Maraini 16, 6963 Pregassona<br>Servizi<br>Accetta: BTC, USDT]]></description>
      <Point><coordinates>8.969516,46.02677,0</coordinates></Point>
    </Placemark>
    <Placemark>
      <name>PrimaClasse hairstyle &amp; beauty</name>
      <description><![CDATA[Via Peri 6, 6900 Lugano<br>Servizi<br>Accetta: BTC, USDT]]></description>
      <Point><coordinates>8.950927,46.005511,0</coordinates></Point>
    </Placemark>
    <Placemark>
      <name>Proof of Steak</name>
      <description><![CDATA[Contrada Sassello 10, 6900 Lugano<br>Ristoranti e bar<br>Accetta: BTC, USDT]]></description>
      <Point><coordinates>8.949772,46.003889,0</coordinates></Point>
    </Placemark>
    <Placemark>
      <name>Purest Accessori In Cachemire</name>
      <description><![CDATA[Via Pietro Capelli 2, 6962 Viganello<br>Shopping<br>Accetta: BTC, USDT]]></description>
      <Point><coordinates>8.959906,46.010054,0</coordinates></Point>
    </Placemark>
    <Placemark>
      <name>R&amp;D Sound Cuzzocrea</name>
      <description><![CDATA[Quartiere Maghetti 10, 6900 Lugano<br>Shopping<br>Accetta: BTC, USDT]]></description>
      <Point><coordinates>8.953803,46.005333,0</coordinates></Point>
    </Placemark>
    <Placemark>
      <name>RepairStore</name>
      <description><![CDATA[Piazza Molino Nuovo 1, 6900 Lugano<br>Shopping<br>Accetta: BTC, USDT]]></description>
      <Point><coordinates>8.954722,46.011715,0</coordinates></Point>
    </Placemark>
    <Placemark>
      <name>Ristorante Bianconero</name>
      <description><![CDATA[Via Trevano 100, 6900 Lugano<br>Ristoranti e bar<br>Accetta: BTC, USDT]]></description>
      <Point><coordinates>8.960327,46.024449,0</coordinates></Point>
    </Placemark>
    <Placemark>
      <name>Ristorante Cantinone</name>
      <description><![CDATA[Piazza Cioccaro 8, 6900 Lugano<br>Ristoranti e bar<br>Accetta: BTC, USDT]]></description>
      <Point><coordinates>8.950042,46.005111,0</coordinates></Point>
    </Placemark>
    <Placemark>
      <name>Ristorante Cinese Orient Express</name>
      <description><![CDATA[Corso Elvezia 22, 6900 Lugano<br>Ristoranti e bar<br>Accetta: BTC, USDT]]></description>
      <Point><coordinates>8.956067,46.008463,0</coordinates></Point>
    </Placemark>
    <Placemark>
      <name>Ristorante Commercio</name>
      <description><![CDATA[Via Ariosto 4, 6900 Lugano<br>Ristoranti e bar<br>Accetta: BTC, USDT]]></description>
      <Point><coordinates>8.95129,46.005932,0</coordinates></Point>
    </Placemark>
    <Placemark>
      <name>Ristorante Federale 1855</name>
      <description><![CDATA[Piazza Riforma 9, 6900 Lugano<br>Ristoranti e bar<br>Accetta: BTC, USDT]]></description>
      <Point><coordinates>8.951142,46.004024,0</coordinates></Point>
    </Placemark>
    <Placemark>
      <name>Ristorante Ikobani</name>
      <description><![CDATA[Piazza Cioccaro 1, 6900 Lugano<br>Ristoranti e bar<br>Accetta: BTC, USDT]]></description>
      <Point><coordinates>8.949864,46.004779,0</coordinates></Point>
    </Placemark>
    <Placemark>
      <name>Ristorante La Fermata</name>
      <description><![CDATA[Via Carlo Cattaneo 21, 6900 Lugano<br>Ristoranti e bar<br>Accetta: BTC, USDT]]></description>
      <Point><coordinates>8.959558,46.005919,0</coordinates></Point>
    </Placemark>
    <Placemark>
      <name>Ristorante Mary</name>
      <description><![CDATA[Piazza Rezzonico 2, 6900 Lugano<br>Ristoranti e bar<br>Accetta: BTC, USDT]]></description>
      <Point><coordinates>8.950853,46.003379,0</coordinates></Point>
    </Placemark>
    <Placemark>
      <name>Ristorante Moncucchetto</name>
      <description><![CDATA[Via Marietta Crivelli Torricelli 27, 6900 Lugano<br>Ristoranti e bar<br>Accetta: BTC, USDT]]></description>
      <Point><coordinates>8.938327,46.002406,0</coordinates></Point>
    </Placemark>
    <Placemark>
      <name>Ristorante Pizzeria Breva</name>
      <description><![CDATA[Viale Castagnola 21, 6900 Lugano<br>Ristoranti e bar<br>Accetta: BTC, USDT]]></description>
      <Point><coordinates>8.966275,46.00618,0</coordinates></Point>
    </Placemark>
    <Placemark>
      <name>Ristorante Pizzeria Domino</name>
      <description><![CDATA[Riva Antonio Caccia 12, 6900 Lugano<br>Ristoranti e bar<br>Accetta: BTC, USDT]]></description>
      <Point><coordinates>8.945955,45.993424,0</coordinates></Point>
    </Placemark>
    <Placemark>
      <name>Ristorante pizzeria Fresco</name>
      <description><![CDATA[Via Bertaro Lambertenghi 5, 6900 Lugano<br>Ristoranti e bar<br>Accetta: BTC, USDT]]></description>
      <Point><coordinates>8.957365,46.008719,0</coordinates></Point>
    </Placemark>
    <Placemark>
      <name>Ristorante Pizzeria Stadio</name>
      <description><![CDATA[Via Trevano 93, 6900 Lugano<br>Ristoranti e bar<br>Accetta: BTC, USDT]]></description>
      <Point><coordinates>8.958218,46.021337,0</coordinates></Point>
    </Placemark>
    <Placemark>
      <name>Ristorante Seven Lugano</name>
      <description><![CDATA[Via Stauffacher - Vedani 1, 6900 Lugano<br>Ristoranti e bar<br>Accetta: BTC, USDT]]></description>
      <Point><coordinates>8.955107,46.003964,0</coordinates></Point>
    </Placemark>
    <Placemark>
      <name>Ristorante Tango Lugano</name>
      <description><![CDATA[Piazza Riforma 10, 6900 Lugano<br>Ristoranti e bar<br>Accetta: BTC, USDT]]></description>
      <Point><coordinates>8.951687,46.004002,0</coordinates></Point>
    </Placemark>
    <Placemark>
      <name>Rolfing Ticino</name>
      <description><![CDATA[Corso Pestalozzi 21 B, 6900 Lugano<br>Servizi<br>Accetta: BTC, USDT]]></description>
      <Point><coordinates>8.954608,46.005908,0</coordinates></Point>
    </Placemark>
    <Placemark>
      <name>Roma Rent - noleggio auto a lungo termine</name>
      <description><![CDATA[Via Vicari 14, 6900 Lugano<br>Servizi<br>Accetta: BTC, USDT]]></description>
      <Point><coordinates>8.968342,46.007386,0</coordinates></Point>
    </Placemark>
    <Placemark>
      <name>RQ Lash Brow Beauty Academy</name>
      <description><![CDATA[Via Ciseri 6, Lugano<br>Servizi<br>Accetta: BTC, USDT]]></description>
      <Point><coordinates>8.951941,46.01074,0</coordinates></Point>
    </Placemark>
    <Placemark>
      <name>RQ Lash Brow Beauty Academy</name>
      <description><![CDATA[Via Ciseri 6, 6900 Lugano<br>Servizi<br>Accetta: BTC, USDT]]></description>
      <Point><coordinates>8.951941,46.01074,0</coordinates></Point>
    </Placemark>
    <Placemark>
      <name>Salone 7 Hairstyle</name>
      <description><![CDATA[Corso Elvezia 21, 6900 Lugano<br>Servizi<br>Accetta: BTC, USDT]]></description>
      <Point><coordinates>8.955619,46.008439,0</coordinates></Point>
    </Placemark>
    <Placemark>
      <name>Salone Conticello</name>
      <description><![CDATA[Viale dei Faggi 10, 6900 Lugano<br>Servizi<br>Accetta: BTC, USDT]]></description>
      <Point><coordinates>8.964477,46.008462,0</coordinates></Point>
    </Placemark>
    <Placemark>
      <name>Salone di Bellezza Ama il tuo Stile</name>
      <description><![CDATA[Via Besso 11, 6900 Lugano<br>Servizi<br>Accetta: BTC, USDT]]></description>
      <Point><coordinates>8.943407,46.005883,0</coordinates></Point>
    </Placemark>
    <Placemark>
      <name>Salone La Lounge Loreto</name>
      <description><![CDATA[Via Maraini 31, 6900 Lugano<br>Servizi<br>Accetta: BTC, USDT]]></description>
      <Point><coordinates>8.943929,45.996409,0</coordinates></Point>
    </Placemark>
    <Placemark>
      <name>Salone Manuela</name>
      <description><![CDATA[Via Frasca 1, 6900 Lugano<br>Servizi<br>Accetta: BTC, USDT]]></description>
      <Point><coordinates>8.955071,46.006122,0</coordinates></Point>
    </Placemark>
    <Placemark>
      <name>Salone Smeraldo</name>
      <description><![CDATA[Salita Chiattone 8, 6900 Lugano<br>Servizi<br>Accetta: BTC, USDT]]></description>
      <Point><coordinates>8.949513,46.005136,0</coordinates></Point>
    </Placemark>
    <Placemark>
      <name>SAM Hair Attitude &amp; Barber Shop</name>
      <description><![CDATA[Via Soave 5A, 6900 Lugano<br>Servizi<br>Accetta: BTC, USDT]]></description>
      <Point><coordinates>8.950748,46.004212,0</coordinates></Point>
    </Placemark>
    <Placemark>
      <name>Sass Cafè Vineria</name>
      <description><![CDATA[Piazza della Riforma 9, 6900 Lugano<br>Ristoranti e bar<br>Accetta: BTC, USDT]]></description>
      <Point><coordinates>8.951031,46.004014,0</coordinates></Point>
    </Placemark>
    <Placemark>
      <name>Sci Club Sasso Grande</name>
      <description><![CDATA[Pian Piret, 6968 Sonvico<br>Servizi<br>Accetta: BTC, USDT]]></description>
      <Point><coordinates>9.007229,46.070514,0</coordinates></Point>
    </Placemark>
    <Placemark>
      <name>Scuola nautica 3 nodi</name>
      <description><![CDATA[Via Foce 11, 6900 Lugano<br>Servizi<br>Accetta: BTC, USDT]]></description>
      <Point><coordinates>8.96204,46.003046,0</coordinates></Point>
    </Placemark>
    <Placemark>
      <name>SD Studi dentistici</name>
      <description><![CDATA[Via Lavizzari 2A, 6900 Lugano<br>Servizi<br>Accetta: BTC, USDT]]></description>
      <Point><coordinates>8.958256,46.006462,0</coordinates></Point>
    </Placemark>
    <Placemark>
      <name>Serena Maisto - Artist</name>
      <description><![CDATA[Via Balestra 30, 6900 Lugano<br>Shopping<br>Accetta: BTC, USDT]]></description>
      <Point><coordinates>8.96017,46.007804,0</coordinates></Point>
    </Placemark>
    <Placemark>
      <name>SH21 Boutique, Piazza Riforma</name>
      <description><![CDATA[Piazza Riforma 12, 6900 Lugano<br>Shopping<br>Accetta: BTC, USDT]]></description>
      <Point><coordinates>8.951784,46.003758,0</coordinates></Point>
    </Placemark>
    <Placemark>
      <name>SH21, Via Nassa</name>
      <description><![CDATA[Via Nassa 36/38, 6900 Lugano<br>Shopping<br>Accetta: BTC, USDT]]></description>
      <Point><coordinates>8.949575,46.002242,0</coordinates></Point>
    </Placemark>
    <Placemark>
      <name>Shisha Bar El Cid Lugano</name>
      <description><![CDATA[Via Antonio Adamini 28, 6900 Lugano<br>Ristoranti e bar<br>Accetta: BTC, USDT]]></description>
      <Point><coordinates>8.94371,45.997643,0</coordinates></Point>
    </Placemark>
    <Placemark>
      <name>ShoeClub</name>
      <description><![CDATA[Via della Posta 8, 6900 Lugano<br>Shopping<br>Accetta: BTC, USDT]]></description>
      <Point><coordinates>8.952708,46.004969,0</coordinates></Point>
    </Placemark>
    <Placemark>
      <name>Shoppa Smart Technology Store</name>
      <description><![CDATA[Viale Castagnola 21, 6900 Lugano<br>Shopping<br>Accetta: BTC, USDT]]></description>
      <Point><coordinates>8.965552,46.00644,0</coordinates></Point>
    </Placemark>
    <Placemark>
      <name>Simone Marchi Tattoo</name>
      <description><![CDATA[Via Canonica 5, 6900 Lugano<br>Servizi<br>Accetta: BTC, USDT]]></description>
      <Point><coordinates>8.956793,46.006974,0</coordinates></Point>
    </Placemark>
    <Placemark>
      <name>SMILE INSTITUTE Lugano</name>
      <description><![CDATA[Via Pioda 5, 6900 Lugano<br>Servizi<br>Accetta: BTC, USDT]]></description>
      <Point><coordinates>8.953667,46.006599,0</coordinates></Point>
    </Placemark>
    <Placemark>
      <name>Snack Bar Lido Riva Caccia</name>
      <description><![CDATA[Via Antonio Riva Caccia 5, 6900 Lugano<br>Ristoranti e bar<br>Accetta: BTC, USDT]]></description>
      <Point><coordinates>8.947121,45.995755,0</coordinates></Point>
    </Placemark>
    <Placemark>
      <name>Sonego Lugano 16</name>
      <description><![CDATA[Via Peri 16, 6900 Lugano<br>Shopping<br>Accetta: BTC, USDT]]></description>
      <Point><coordinates>8.950864,46.006041,0</coordinates></Point>
    </Placemark>
    <Placemark>
      <name>Sport Rehab</name>
      <description><![CDATA[Via Moncucco 7, 6900 Lugano<br>Servizi<br>Accetta: BTC, USDT]]></description>
      <Point><coordinates>8.942279,46.005332,0</coordinates></Point>
    </Placemark>
    <Placemark>
      <name>Stach Clothing</name>
      <description><![CDATA[Via Magatti 1, 6900 Lugano<br>Shopping<br>Accetta: BTC, USDT]]></description>
      <Point><coordinates>8.951958,46.00438,0</coordinates></Point>
    </Placemark>
    <Placemark>
      <name>Stage 12</name>
      <description><![CDATA[Corso Pestalozzi 12, 6900 Lugano<br>Servizi<br>Accetta: BTC, USDT]]></description>
      <Point><coordinates>8.954462,46.005519,0</coordinates></Point>
    </Placemark>
    <Placemark>
      <name>Staglio, La Pizza al Taglio Lugano</name>
      <description><![CDATA[Corso Elvezia 8, 6900 Lugano<br>Ristoranti e bar<br>Accetta: BTC, USDT]]></description>
      <Point><coordinates>8.955828,46.006837,0</coordinates></Point>
    </Placemark>
    <Placemark>
      <name>Studio Antonini</name>
      <description><![CDATA[Viale Franscini 27, 6900 Lugano<br>Servizi<br>Accetta: BTC, USDT]]></description>
      <Point><coordinates>8.954392,46.010931,0</coordinates></Point>
    </Placemark>
    <Placemark>
      <name>Studio Ceramica Lurra</name>
      <description><![CDATA[Via Frasca 4, 6900 Lugano<br>Servizi<br>Accetta: BTC, USDT]]></description>
      <Point><coordinates>8.95517,46.006551,0</coordinates></Point>
    </Placemark>
    <Placemark>
      <name>Studio Laterale Yoga &amp; Health Coaching</name>
      <description><![CDATA[Via Besso 42, 6900 Lugano<br>Servizi<br>Accetta: BTC, USDT]]></description>
      <Point><coordinates>8.94172,46.007306,0</coordinates></Point>
    </Placemark>
    <Placemark>
      <name>Studio massaggi medicali di Gabriella Sessa</name>
      <description><![CDATA[Via delle Scuole 15 A, 6900 Lugano<br>Servizi<br>Accetta: BTC, USDT]]></description>
      <Point><coordinates>8.966232,46.00837,0</coordinates></Point>
    </Placemark>
    <Placemark>
      <name>Studio Medico Dr. Alfonso Iodice</name>
      <description><![CDATA[Via Bottogno 7A, 6962 Viganello<br>Servizi<br>Accetta: BTC, USDT]]></description>
      <Point><coordinates>8.968086,46.012544,0</coordinates></Point>
    </Placemark>
    <Placemark>
      <name>Studio Medico Dr. Giunchi</name>
      <description><![CDATA[Via Petrini 2 (presso Centro Medico Lugano Centro), Lugano<br>Servizi<br>Accetta: BTC, USDT]]></description>
      <Point><coordinates>8.955185,46.013504,0</coordinates></Point>
    </Placemark>
    <Placemark>
      <name>Swiss Free Shop</name>
      <description><![CDATA[Via Zurigo 2, 6900 Lugano<br>Ristoranti e bar<br>Accetta: BTC, USDT]]></description>
      <Point><coordinates>8.956455,46.011475,0</coordinates></Point>
    </Placemark>
    <Placemark>
      <name>SwissXPat</name>
      <description><![CDATA[Viale Franscini 16, 6900 Lugano<br>Servizi<br>Accetta: BTC, USDT]]></description>
      <Point><coordinates>8.95406,46.009879,0</coordinates></Point>
    </Placemark>
    <Placemark>
      <name>Taleda</name>
      <description><![CDATA[Via Pessina 20, 6900 Lugano<br>Shopping<br>Accetta: BTC, USDT]]></description>
      <Point><coordinates>8.950695,46.004629,0</coordinates></Point>
    </Placemark>
    <Placemark>
      <name>Tasty Bites</name>
      <description><![CDATA[Via Lavizzari 5, 6900 Lugano<br>Ristoranti e bar<br>Accetta: BTC, USDT]]></description>
      <Point><coordinates>8.957915,46.006607,0</coordinates></Point>
    </Placemark>
    <Placemark>
      <name>Taxi Daniele</name>
      <description><![CDATA[-, 6900 Lugano<br>Servizi<br>Accetta: BTC, USDT]]></description>
      <Point><coordinates>8.951463,46.005334,0</coordinates></Point>
    </Placemark>
    <Placemark>
      <name>Taxi Driver</name>
      <description><![CDATA[Piazza Riforma, 6900 Lugano<br>Servizi<br>Accetta: BTC, USDT]]></description>
      <Point><coordinates>8.951916,46.003671,0</coordinates></Point>
    </Placemark>
    <Placemark>
      <name>Taxi Luca</name>
      <description><![CDATA[Via Clemente Maraini, 6900 Lugano<br>Servizi<br>Accetta: BTC, USDT]]></description>
      <Point><coordinates>8.947414,46.004102,0</coordinates></Point>
    </Placemark>
    <Placemark>
      <name>Taxi Lugano 24 NoStop</name>
      <description><![CDATA[Via Beltramina 16, 6900 Lugano<br>Servizi<br>Accetta: BTC, USDT]]></description>
      <Point><coordinates>8.959305,46.016903,0</coordinates></Point>
    </Placemark>
    <Placemark>
      <name>Tech Lugano</name>
      <description><![CDATA[Via G.B. Pioda 4, 6900 Lugano<br>Shopping<br>Accetta: BTC, USDT]]></description>
      <Point><coordinates>8.953925,46.006079,0</coordinates></Point>
    </Placemark>
    <Placemark>
      <name>Teddy Spiel</name>
      <description><![CDATA[Quartiere Maghetti 6, 6900 Lugano<br>Shopping<br>Accetta: BTC, USDT]]></description>
      <Point><coordinates>8.95356,46.005261,0</coordinates></Point>
    </Placemark>
    <Placemark>
      <name>The Market</name>
      <description><![CDATA[Via Pasquale Lucchini 12, 6900 Lugano<br>Ristoranti e bar<br>Accetta: BTC, USDT]]></description>
      <Point><coordinates>8.957488,46.007605,0</coordinates></Point>
    </Placemark>
    <Placemark>
      <name>The Perfumery</name>
      <description><![CDATA[Via Pretorio 7, 6900 Lugano<br>Shopping<br>Accetta: BTC, USDT]]></description>
      <Point><coordinates>8.951517,46.00585,0</coordinates></Point>
    </Placemark>
    <Placemark>
      <name>The Store</name>
      <description><![CDATA[Via della posta 7, 6900 Lugano<br>Shopping<br>Accetta: BTC, USDT]]></description>
      <Point><coordinates>8.952298,46.005105,0</coordinates></Point>
    </Placemark>
    <Placemark>
      <name>Tomatis Ticino</name>
      <description><![CDATA[Via delle Scuole 12, 6900 Lugano<br>Servizi<br>Accetta: BTC, USDT]]></description>
      <Point><coordinates>8.966935,46.007425,0</coordinates></Point>
    </Placemark>
    <Placemark>
      <name>Trinity Irish Pub</name>
      <description><![CDATA[Via Canonica 1, 6900 Lugano<br>Ristoranti e bar<br>Accetta: BTC, USDT]]></description>
      <Point><coordinates>8.96028,46.006915,0</coordinates></Point>
    </Placemark>
    <Placemark>
      <name>Triticum Bakery</name>
      <description><![CDATA[Viale Franscini 27 angolo Via Vanoni, 6900 Lugano<br>Ristoranti e bar<br>Accetta: BTC, USDT]]></description>
      <Point><coordinates>8.954189,46.011005,0</coordinates></Point>
    </Placemark>
    <Placemark>
      <name>Tuina Massage by Sido (a domicilio)</name>
      <description><![CDATA[Via Sorengo 17, 6900 Lugano<br>Servizi<br>Accetta: BTC, USDT]]></description>
      <Point><coordinates>8.942272,46.00433,0</coordinates></Point>
    </Placemark>
    <Placemark>
      <name>Tutti Servizi - Mercato alimentare</name>
      <description><![CDATA[Contrada Verla, 6900 Lugano<br>Ristoranti e bar<br>Accetta: BTC, USDT]]></description>
      <Point><coordinates>8.952115,46.00515,0</coordinates></Point>
    </Placemark>
    <Placemark>
      <name>Valentina Beauty Center</name>
      <description><![CDATA[Via Besso 7, 6900 Lugano<br>Servizi<br>Accetta: BTC, USDT]]></description>
      <Point><coordinates>8.943737,46.005839,0</coordinates></Point>
    </Placemark>
    <Placemark>
      <name>Valentina Cervo - Parrucchiera</name>
      <description><![CDATA[c/o MDP. Michele Di Paolo AESTHETIC HUB, Via Pioda 9, 6900 Lugano<br>Servizi<br>Accetta: BTC, USDT]]></description>
      <Point><coordinates>8.953884,46.007409,0</coordinates></Point>
    </Placemark>
    <Placemark>
      <name>Vibotech Sagl</name>
      <description><![CDATA[Salita Ines Bolla 2, 6900 Lugano<br>Servizi<br>Accetta: BTC, USDT]]></description>
      <Point><coordinates>8.949706,46.009806,0</coordinates></Point>
    </Placemark>
    <Placemark>
      <name>Vin &amp; Co. - Wine Bar &amp; More Bistrot</name>
      <description><![CDATA[Viale Franscini 38, 6900 Lugano<br>Ristoranti e bar<br>Accetta: BTC, USDT]]></description>
      <Point><coordinates>8.954733,46.011006,0</coordinates></Point>
    </Placemark>
    <Placemark>
      <name>Vitti</name>
      <description><![CDATA[Via Pretorio 2, 6900 Lugano<br>Ristoranti e bar<br>Accetta: BTC, USDT]]></description>
      <Point><coordinates>8.951617,46.00533,0</coordinates></Point>
    </Placemark>
    <Placemark>
      <name>Vivi Breganzona</name>
      <description><![CDATA[Piazza Chiattone, 6932 Breganzona<br>Servizi<br>Accetta: BTC, USDT]]></description>
      <Point><coordinates>8.929319,46.007887,0</coordinates></Point>
    </Placemark>
    <Placemark>
      <name>Voltech Controllo Impianti Elettrici</name>
      <description><![CDATA[Corso Elvezia 37, 6900 Lugano<br>Servizi<br>Accetta: BTC, USDT]]></description>
      <Point><coordinates>8.956062,46.010903,0</coordinates></Point>
    </Placemark>
    <Placemark>
      <name>Women's Movimento</name>
      <description><![CDATA[Via San Carlo 7, 6932 Breganzona<br>Servizi<br>Accetta: BTC, USDT]]></description>
      <Point><coordinates>8.9331,46.013231,0</coordinates></Point>
    </Placemark>
    <Placemark>
      <name>Yes Swiss Global Event Services</name>
      <description><![CDATA[Via Marconi 4, 6900 Lugano<br>Servizi<br>Accetta: BTC, USDT]]></description>
      <Point><coordinates>8.954767,46.00416,0</coordinates></Point>
    </Placemark>
    <Placemark>
      <name>Yoyo-Tennis &amp; Phili-Riding</name>
      <description><![CDATA[Via del Tiglio 3, 6900 Lugano<br>Shopping<br>Accetta: BTC, USDT]]></description>
      <Point><coordinates>8.9615,46.007298,0</coordinates></Point>
    </Placemark>
    <Placemark>
      <name>Z-Bike Lugano</name>
      <description><![CDATA[Via Vignola 14, 6900 Lugano<br>Shopping<br>Accetta: BTC, USDT]]></description>
      <Point><coordinates>8.958772,46.015899,0</coordinates></Point>
    </Placemark>
    <Placemark>
      <name>Zenzero Beauty Culture</name>
      <description><![CDATA[Via Canova 15, 6900 Lugano<br>Servizi<br>Accetta: BTC, USDT]]></description>
      <Point><coordinates>8.954654,46.004588,0</coordinates></Point>
    </Placemark>
    <Placemark>
      <name>ZigoZago - Produzione e ingrosso abbigliamento per bambini</name>
      <description><![CDATA[Via Bregà 13, 6965 Cadro<br>Shopping<br>Accetta: BTC, USDT]]></description>
      <Point><coordinates>8.988593,46.05132,0</coordinates></Point>
    </Placemark>
    <Placemark>
      <name>Zoeyland</name>
      <description><![CDATA[Via Contrada Sassello 5, 6900 Lugano<br>Shopping<br>Accetta: BTC, USDT]]></description>
      <Point><coordinates>8.949737,46.00356,0</coordinates></Point>
    </Placemark>
  </Document>
</kml>
